{
  "links" : {
    "next" : "https://api.nasa.gov/neo/rest/v1/feed?start_date=2016-06-23&end_date=2016-06-23&detailed=true&api_key=t0TVs3DtDT2H8Oy2Zy8m2eVrNsAVKAexjcZXUckd",
    "prev" : "https://api.nasa.gov/neo/rest/v1/feed?start_date=2016-06-21&end_date=2016-06-21&detailed=true&api_key=t0TVs3DtDT2H8Oy2Zy8m2eVrNsAVKAexjcZXUckd",
    "self" : "https://api.nasa.gov/neo/rest/v1/feed?start_date=2016-06-22&end_date=2016-06-22&detailed=true&api_key=t0TVs3DtDT2H8Oy2Zy8m2eVrNsAVKAexjcZXUckd"
  },
  "element_count" : 8,
  "near_earth_objects" : {
    "2016-06-22" : [ {
      "links" : {
        "self" : "https://api.nasa.gov/neo/rest/v1/neo/3759354?api_key=t0TVs3DtDT2H8Oy2Zy8m2eVrNsAVKAexjcZXUckd"
      },
      "neo_reference_id" : "3759354",
      "name" : "(2016 RS33)",
      "nasa_jpl_url" : "http://ssd.jpl.nasa.gov/sbdb.cgi?sstr=3759354",
      "absolute_magnitude_h" : 21.9,
      "estimated_diameter" : {
        "kilometers" : {
          "estimated_diameter_min" : 0.1108038821,
          "estimated_diameter_max" : 0.2477650126
        },
        "meters" : {
          "estimated_diameter_min" : 110.8038821264,
          "estimated_diameter_max" : 247.7650126055
        },
        "miles" : {
          "estimated_diameter_min" : 0.068850319,
          "estimated_diameter_max" : 0.1539539936
        },
        "feet" : {
          "estimated_diameter_min" : 363.5298086356,
          "estimated_diameter_max" : 812.8773639568
        }
      },
      "is_potentially_hazardous_asteroid" : false,
      "close_approach_data" : [ {
        "close_approach_date" : "2016-06-22",
        "epoch_date_close_approach" : 1466578800000,
        "relative_velocity" : {
          "kilometers_per_second" : "11.1015838714",
          "kilometers_per_hour" : "39965.7019371365",
          "miles_per_hour" : "24833.1329619946"
        },
        "miss_distance" : {
          "astronomical" : "0.27243652",
          "lunar" : "105.9778137207",
          "kilometers" : "40755924",
          "miles" : "25324558"
        },
        "orbiting_body" : "Earth"
      } ],
      "orbital_data" : {
        "orbit_id" : "5",
        "orbit_determination_date" : "2017-04-06 08:23:56",
        "orbit_uncertainty" : "5",
        "minimum_orbit_intersection" : ".0991354",
        "jupiter_tisserand_invariant" : "3.477",
        "epoch_osculation" : "2458000.5",
        "eccentricity" : ".4967574775363308",
        "semi_major_axis" : "2.208481747896671",
        "inclination" : "7.595801375217554",
        "ascending_node_longitude" : "127.4725137517673",
        "orbital_period" : "1198.779060634267",
        "perihelion_distance" : "1.111401925626494",
        "perihelion_argument" : "166.3727350415911",
        "aphelion_distance" : "3.305561570166848",
        "perihelion_time" : "2457571.242129057887",
        "mean_anomaly" : "128.9085191873458",
        "mean_motion" : ".3003055457187633",
        "equinox" : "J2000"
      }
    }, {
      "links" : {
        "self" : "https://api.nasa.gov/neo/rest/v1/neo/3766296?api_key=t0TVs3DtDT2H8Oy2Zy8m2eVrNsAVKAexjcZXUckd"
      },
      "neo_reference_id" : "3766296",
      "name" : "(2017 AH3)",
      "nasa_jpl_url" : "http://ssd.jpl.nasa.gov/sbdb.cgi?sstr=3766296",
      "absolute_magnitude_h" : 23.3,
      "estimated_diameter" : {
        "kilometers" : {
          "estimated_diameter_min" : 0.058150704,
          "estimated_diameter_max" : 0.130028927
        },
        "meters" : {
          "estimated_diameter_min" : 58.1507039646,
          "estimated_diameter_max" : 130.0289270043
        },
        "miles" : {
          "estimated_diameter_min" : 0.0361331611,
          "estimated_diameter_max" : 0.0807962044
        },
        "feet" : {
          "estimated_diameter_min" : 190.7831555951,
          "estimated_diameter_max" : 426.6041048727
        }
      },
      "is_potentially_hazardous_asteroid" : false,
      "close_approach_data" : [ {
        "close_approach_date" : "2016-06-22",
        "epoch_date_close_approach" : 1466578800000,
        "relative_velocity" : {
          "kilometers_per_second" : "10.5447984764",
          "kilometers_per_hour" : "37961.2745149968",
          "miles_per_hour" : "23587.6597118323"
        },
        "miss_distance" : {
          "astronomical" : "0.1744142802",
          "lunar" : "67.84715271",
          "kilometers" : "26092004",
          "miles" : "16212820"
        },
        "orbiting_body" : "Earth"
      } ],
      "orbital_data" : {
        "orbit_id" : "6",
        "orbit_determination_date" : "2017-04-06 08:21:13",
        "orbit_uncertainty" : "5",
        "minimum_orbit_intersection" : ".112009",
        "jupiter_tisserand_invariant" : "5.933",
        "epoch_osculation" : "2458000.5",
        "eccentricity" : ".1188514173923319",
        "semi_major_axis" : "1.021178140895863",
        "inclination" : "17.768841172677",
        "ascending_node_longitude" : "290.7226143440226",
        "orbital_period" : "376.921309787559",
        "perihelion_distance" : ".8998096714403232",
        "perihelion_argument" : "343.6338443692473",
        "aphelion_distance" : "1.142546610351403",
        "perihelion_time" : "2457936.423629003821",
        "mean_anomaly" : "61.19975963053361",
        "mean_motion" : ".9551065186600985",
        "equinox" : "J2000"
      }
    } ]
  }
}